ONEWEB-0066             
1 45424U 20020A   24098.48798963 -.00000437  00000+0 -12682-2 0  9996
2 45424  87.9033 180.3041 0001618 108.3122 251.8182 13.11418342197733
ONEWEB-0067             
1 45425U 20020B   24098.51153857  .00000391  00000+0  10667-2 0  9996
2 45425  87.9028 180.2618 0001904  95.4811 264.6534 13.11420152197797
ONEWEB-0080             
1 45426U 20020C   24098.46040850  .00000295  00000+0  79799-3 0  9994
2 45426  87.9032 180.3124 0001772 114.9293 245.2019 13.11415997197750
ONEWEB-0090             
1 45427U 20020D   24098.47825485 -.00000426  00000+0 -12366-2 0  9995
2 45427  87.9037 180.2893 0001907 107.3249 252.8087 13.11416371197728
ONEWEB-0061             
1 45428U 20020E   24098.51071925  .00000316  00000+0  85559-3 0  9994
2 45428  87.9032 180.2842 0001909 103.3990 256.7351 13.11425210197683
ONEWEB-0081             
1 45429U 20020F   24098.49123047 -.00000301  00000+0 -88524-3 0  9996
2 45429  87.9033 180.3050 0001802 100.4055 259.7276 13.11416288197795
ONEWEB-0069             
1 45430U 20020G   24098.48150385 -.00000427  00000+0 -12419-2 0  9990
2 45430  87.9033 180.2954 0002021 105.6281 254.5070 13.11417234197721
ONEWEB-0031             
1 45431U 20020H   24098.45229726  .00000528  00000+0  14531-2 0  9991
2 45431  87.9039 180.3054 0002296 103.1256 257.0128 13.11416662197703
