<?xml version="1.0" encoding="UTF-8"?>
<ndm xmlns:xsi="http://www.w3.org/2001/XMLSchema-instance" xsi:noNamespaceSchemaLocation="https://sanaregistry.org/r/ndmxml_unqualified/ndmxml-2.0.0-master-2.0.xsd">
<omm id="CCSDS_OMM_VERS" version="2.0">
<header><CREATION_DATE/><ORIGINATOR/></header><body><segment><metadata><OBJECT_NAME>ONEWEB-0066</OBJECT_NAME><OBJECT_ID>2020-020A</OBJECT_ID><CENTER_NAME>EARTH</CENTER_NAME><REF_FRAME>TEME</REF_FRAME><TIME_SYSTEM>UTC</TIME_SYSTEM><MEAN_ELEMENT_THEORY>SGP4</MEAN_ELEMENT_THEORY></metadata><data><meanElements><EPOCH>2024-04-07T11:42:42.304032</EPOCH><MEAN_MOTION>13.11418342</MEAN_MOTION><ECCENTRICITY>.0001618</ECCENTRICITY><INCLINATION>87.9033</INCLINATION><RA_OF_ASC_NODE>180.3041</RA_OF_ASC_NODE><ARG_OF_PERICENTER>108.3122</ARG_OF_PERICENTER><MEAN_ANOMALY>251.8182</MEAN_ANOMALY></meanElements><tleParameters><EPHEMERIS_TYPE>0</EPHEMERIS_TYPE><CLASSIFICATION_TYPE>U</CLASSIFICATION_TYPE><NORAD_CAT_ID>45424</NORAD_CAT_ID><ELEMENT_SET_NO>999</ELEMENT_SET_NO><REV_AT_EPOCH>19773</REV_AT_EPOCH><BSTAR>-.12682E-2</BSTAR><MEAN_MOTION_DOT>-.437E-5</MEAN_MOTION_DOT><MEAN_MOTION_DDOT>0</MEAN_MOTION_DDOT></tleParameters></data></segment></body></omm>
<omm id="CCSDS_OMM_VERS" version="2.0">
<header><CREATION_DATE/><ORIGINATOR/></header><body><segment><metadata><OBJECT_NAME>ONEWEB-0067</OBJECT_NAME><OBJECT_ID>2020-020B</OBJECT_ID><CENTER_NAME>EARTH</CENTER_NAME><REF_FRAME>TEME</REF_FRAME><TIME_SYSTEM>UTC</TIME_SYSTEM><MEAN_ELEMENT_THEORY>SGP4</MEAN_ELEMENT_THEORY></metadata><data><meanElements><EPOCH>2024-04-07T12:16:36.932448</EPOCH><MEAN_MOTION>13.11420152</MEAN_MOTION><ECCENTRICITY>.0001904</ECCENTRICITY><INCLINATION>87.9028</INCLINATION><RA_OF_ASC_NODE>180.2618</RA_OF_ASC_NODE><ARG_OF_PERICENTER>95.4811</ARG_OF_PERICENTER><MEAN_ANOMALY>264.6534</MEAN_ANOMALY></meanElements><tleParameters><EPHEMERIS_TYPE>0</EPHEMERIS_TYPE><CLASSIFICATION_TYPE>U</CLASSIFICATION_TYPE><NORAD_CAT_ID>45425</NORAD_CAT_ID><ELEMENT_SET_NO>999</ELEMENT_SET_NO><REV_AT_EPOCH>19779</REV_AT_EPOCH><BSTAR>.10667E-2</BSTAR><MEAN_MOTION_DOT>.391E-5</MEAN_MOTION_DOT><MEAN_MOTION_DDOT>0</MEAN_MOTION_DDOT></tleParameters></data></segment></body></omm>
<omm id="CCSDS_OMM_VERS" version="2.0">
<header><CREATION_DATE/><ORIGINATOR/></header><body><segment><metadata><OBJECT_NAME>ONEWEB-0080</OBJECT_NAME><OBJECT_ID>2020-020C</OBJECT_ID><CENTER_NAME>EARTH</CENTER_NAME><REF_FRAME>TEME</REF_FRAME><TIME_SYSTEM>UTC</TIME_SYSTEM><MEAN_ELEMENT_THEORY>SGP4</MEAN_ELEMENT_THEORY></metadata><data><meanElements><EPOCH>2024-04-07T11:02:59.294400</EPOCH><MEAN_MOTION>13.11415997</MEAN_MOTION><ECCENTRICITY>.0001772</ECCENTRICITY><INCLINATION>87.9032</INCLINATION><RA_OF_ASC_NODE>180.3124</RA_OF_ASC_NODE><ARG_OF_PERICENTER>114.9293</ARG_OF_PERICENTER><MEAN_ANOMALY>245.2019</MEAN_ANOMALY></meanElements><tleParameters><EPHEMERIS_TYPE>0</EPHEMERIS_TYPE><CLASSIFICATION_TYPE>U</CLASSIFICATION_TYPE><NORAD_CAT_ID>45426</NORAD_CAT_ID><ELEMENT_SET_NO>999</ELEMENT_SET_NO><REV_AT_EPOCH>19775</REV_AT_EPOCH><BSTAR>.79799E-3</BSTAR><MEAN_MOTION_DOT>.295E-5</MEAN_MOTION_DOT><MEAN_MOTION_DDOT>0</MEAN_MOTION_DDOT></tleParameters></data></segment></body></omm>
<omm id="CCSDS_OMM_VERS" version="2.0">
<header><CREATION_DATE/><ORIGINATOR/></header><body><segment><metadata><OBJECT_NAME>ONEWEB-0090</OBJECT_NAME><OBJECT_ID>2020-020D</OBJECT_ID><CENTER_NAME>EARTH</CENTER_NAME><REF_FRAME>TEME</REF_FRAME><TIME_SYSTEM>UTC</TIME_SYSTEM><MEAN_ELEMENT_THEORY>SGP4</MEAN_ELEMENT_THEORY></metadata><data><meanElements><EPOCH>2024-04-07T11:28:41.219040</EPOCH><MEAN_MOTION>13.11416371</MEAN_MOTION><ECCENTRICITY>.0001907</ECCENTRICITY><INCLINATION>87.9037</INCLINATION><RA_OF_ASC_NODE>180.2893</RA_OF_ASC_NODE><ARG_OF_PERICENTER>107.3249</ARG_OF_PERICENTER><MEAN_ANOMALY>252.8087</MEAN_ANOMALY></meanElements><tleParameters><EPHEMERIS_TYPE>0</EPHEMERIS_TYPE><CLASSIFICATION_TYPE>U</CLASSIFICATION_TYPE><NORAD_CAT_ID>45427</NORAD_CAT_ID><ELEMENT_SET_NO>999</ELEMENT_SET_NO><REV_AT_EPOCH>19772</REV_AT_EPOCH><BSTAR>-.12366E-2</BSTAR><MEAN_MOTION_DOT>-.426E-5</MEAN_MOTION_DOT><MEAN_MOTION_DDOT>0</MEAN_MOTION_DDOT></tleParameters></data></segment></body></omm>
<omm id="CCSDS_OMM_VERS" version="2.0">
<header><CREATION_DATE/><ORIGINATOR/></header><body><segment><metadata><OBJECT_NAME>ONEWEB-0061</OBJECT_NAME><OBJECT_ID>2020-020E</OBJECT_ID><CENTER_NAME>EARTH</CENTER_NAME><REF_FRAME>TEME</REF_FRAME><TIME_SYSTEM>UTC</TIME_SYSTEM><MEAN_ELEMENT_THEORY>SGP4</MEAN_ELEMENT_THEORY></metadata><data><meanElements><EPOCH>2024-04-07T12:15:26.143200</EPOCH><MEAN_MOTION>13.11425210</MEAN_MOTION><ECCENTRICITY>.0001909</ECCENTRICITY><INCLINATION>87.9032</INCLINATION><RA_OF_ASC_NODE>180.2842</RA_OF_ASC_NODE><ARG_OF_PERICENTER>103.3990</ARG_OF_PERICENTER><MEAN_ANOMALY>256.7351</MEAN_ANOMALY></meanElements><tleParameters><EPHEMERIS_TYPE>0</EPHEMERIS_TYPE><CLASSIFICATION_TYPE>U</CLASSIFICATION_TYPE><NORAD_CAT_ID>45428</NORAD_CAT_ID><ELEMENT_SET_NO>999</ELEMENT_SET_NO><REV_AT_EPOCH>19768</REV_AT_EPOCH><BSTAR>.85559E-3</BSTAR><MEAN_MOTION_DOT>.316E-5</MEAN_MOTION_DOT><MEAN_MOTION_DDOT>0</MEAN_MOTION_DDOT></tleParameters></data></segment></body></omm>
<omm id="CCSDS_OMM_VERS" version="2.0">
<header><CREATION_DATE/><ORIGINATOR/></header><body><segment><metadata><OBJECT_NAME>ONEWEB-0081</OBJECT_NAME><OBJECT_ID>2020-020F</OBJECT_ID><CENTER_NAME>EARTH</CENTER_NAME><REF_FRAME>TEME</REF_FRAME><TIME_SYSTEM>UTC</TIME_SYSTEM><MEAN_ELEMENT_THEORY>SGP4</MEAN_ELEMENT_THEORY></metadata><data><meanElements><EPOCH>2024-04-07T11:47:22.312608</EPOCH><MEAN_MOTION>13.11416288</MEAN_MOTION><ECCENTRICITY>.0001802</ECCENTRICITY><INCLINATION>87.9033</INCLINATION><RA_OF_ASC_NODE>180.3050</RA_OF_ASC_NODE><ARG_OF_PERICENTER>100.4055</ARG_OF_PERICENTER><MEAN_ANOMALY>259.7276</MEAN_ANOMALY></meanElements><tleParameters><EPHEMERIS_TYPE>0</EPHEMERIS_TYPE><CLASSIFICATION_TYPE>U</CLASSIFICATION_TYPE><NORAD_CAT_ID>45429</NORAD_CAT_ID><ELEMENT_SET_NO>999</ELEMENT_SET_NO><REV_AT_EPOCH>19779</REV_AT_EPOCH><BSTAR>-.88524E-3</BSTAR><MEAN_MOTION_DOT>-.301E-5</MEAN_MOTION_DOT><MEAN_MOTION_DDOT>0</MEAN_MOTION_DDOT></tleParameters></data></segment></body></omm>
<omm id="CCSDS_OMM_VERS" version="2.0">
<header><CREATION_DATE/><ORIGINATOR/></header><body><segment><metadata><OBJECT_NAME>ONEWEB-0069</OBJECT_NAME><OBJECT_ID>2020-020G</OBJECT_ID><CENTER_NAME>EARTH</CENTER_NAME><REF_FRAME>TEME</REF_FRAME><TIME_SYSTEM>UTC</TIME_SYSTEM><MEAN_ELEMENT_THEORY>SGP4</MEAN_ELEMENT_THEORY></metadata><data><meanElements><EPOCH>2024-04-07T11:33:21.932640</EPOCH><MEAN_MOTION>13.11417234</MEAN_MOTION><ECCENTRICITY>.0002021</ECCENTRICITY><INCLINATION>87.9033</INCLINATION><RA_OF_ASC_NODE>180.2954</RA_OF_ASC_NODE><ARG_OF_PERICENTER>105.6281</ARG_OF_PERICENTER><MEAN_ANOMALY>254.5070</MEAN_ANOMALY></meanElements><tleParameters><EPHEMERIS_TYPE>0</EPHEMERIS_TYPE><CLASSIFICATION_TYPE>U</CLASSIFICATION_TYPE><NORAD_CAT_ID>45430</NORAD_CAT_ID><ELEMENT_SET_NO>999</ELEMENT_SET_NO><REV_AT_EPOCH>19772</REV_AT_EPOCH><BSTAR>-.12419E-2</BSTAR><MEAN_MOTION_DOT>-.427E-5</MEAN_MOTION_DOT><MEAN_MOTION_DDOT>0</MEAN_MOTION_DDOT></tleParameters></data></segment></body></omm>
<omm id="CCSDS_OMM_VERS" version="2.0">
<header><CREATION_DATE/><ORIGINATOR/></header><body><segment><metadata><OBJECT_NAME>ONEWEB-0031</OBJECT_NAME><OBJECT_ID>2020-020H</OBJECT_ID><CENTER_NAME>EARTH</CENTER_NAME><REF_FRAME>TEME</REF_FRAME><TIME_SYSTEM>UTC</TIME_SYSTEM><MEAN_ELEMENT_THEORY>SGP4</MEAN_ELEMENT_THEORY></metadata><data><meanElements><EPOCH>2024-04-07T10:51:18.483264</EPOCH><MEAN_MOTION>13.11416662</MEAN_MOTION><ECCENTRICITY>.0002296</ECCENTRICITY><INCLINATION>87.9039</INCLINATION><RA_OF_ASC_NODE>180.3054</RA_OF_ASC_NODE><ARG_OF_PERICENTER>103.1256</ARG_OF_PERICENTER><MEAN_ANOMALY>257.0128</MEAN_ANOMALY></meanElements><tleParameters><EPHEMERIS_TYPE>0</EPHEMERIS_TYPE><CLASSIFICATION_TYPE>U</CLASSIFICATION_TYPE><NORAD_CAT_ID>45431</NORAD_CAT_ID><ELEMENT_SET_NO>999</ELEMENT_SET_NO><REV_AT_EPOCH>19770</REV_AT_EPOCH><BSTAR>.14531E-2</BSTAR><MEAN_MOTION_DOT>.528E-5</MEAN_MOTION_DOT><MEAN_MOTION_DDOT>0</MEAN_MOTION_DDOT></tleParameters></data></segment></body></omm>

</ndm>
